STARLINK-31676          
1 59900U 24100R   26068.21708419  .00000478  00000+0  26887-4 0  9997
2 59900  42.9990 128.1434 0001282 163.6464 196.4430 15.27566795100971
2025-155V               
1 64895U 25155V   26068.85787115  .00013705  00000+0  51002-3 0  9990
2 64895  97.4485  37.2490 0008035 152.8264 207.3397 15.27583301 65579
