[{"OBJECT_NAME":"STARLINK-31676","OBJECT_ID":"2024-100R","EPOCH":"2026-03-09T05:12:36.074016","MEAN_MOTION":15.27566795,"ECCENTRICITY":0.00012829,"INCLINATION":42.999,"RA_OF_ASC_NODE":128.1434,"ARG_OF_PERICENTER":163.6464,"MEAN_ANOMALY":196.443,"EPHEMERIS_TYPE":0,"CLASSIFICATION_TYPE":"U","NORAD_CAT_ID":59900,"ELEMENT_SET_NO":999,"REV_AT_EPOCH":10097,"BSTAR":2.6887241e-5,"MEAN_MOTION_DOT":4.78e-6,"MEAN_MOTION_DDOT":0},{"OBJECT_NAME":"OBJECT V","OBJECT_ID":"2025-155V","EPOCH":"2026-03-09T20:35:20.067360","MEAN_MOTION":15.27583301,"ECCENTRICITY":0.00080353,"INCLINATION":97.4485,"RA_OF_ASC_NODE":37.249,"ARG_OF_PERICENTER":152.8264,"MEAN_ANOMALY":207.3397,"EPHEMERIS_TYPE":0,"CLASSIFICATION_TYPE":"U","NORAD_CAT_ID":64895,"ELEMENT_SET_NO":999,"REV_AT_EPOCH":6557,"BSTAR":0.00051002361,"MEAN_MOTION_DOT":0.00013705,"MEAN_MOTION_DDOT":0}]
